{
  "type": "FeatureCollection",
  "features": [
    {
      "type": "Feature",
      "properties": {
        "norad_id": 33637,
        "name": "FENGYUN 1C DEB",
        "group": "fengyun-1c-debris",
        "lat": -54.441908301724595,
        "lon": -165.8505956560954,
        "alt_km": 753.388856356717,
        "timestamp": "2025-12-07T03:52:32.784229+00:00",
        "meta_object_name": "FENGYUN 1C DEB",
        "meta_object_id": "1999-025DDW",
        "meta_epoch": "2025-12-02T20:49:29.953920",
        "meta_mean_motion": 14.36621291,
        "meta_eccentricity": 0.00830408,
        "meta_inclination": 98.4948,
        "meta_ra_of_asc_node": 21.982,
        "meta_arg_of_pericenter": 180.571,
        "meta_mean_anomaly": 179.5395,
        "meta_ephemeris_type": 0,
        "meta_classification_type": "U",
        "meta_norad_cat_id": 33637,
        "meta_element_set_no": 999,
        "meta_rev_at_epoch": 64696,
        "meta_bstar": 0.0016160218,
        "meta_mean_motion_dot": 4.904e-05,
        "meta_mean_motion_ddot": 0,
        "tle_line1": "1 33637U 99025DDW 25336.86770780  .00004904  00000+0  16160-2 0  9991",
        "tle_line2": "2 33637  98.4948  21.9820 0083040 180.5710 179.5395 14.36621291646960"
      },
      "geometry": {
        "type": "Point",
        "coordinates": [
          -165.8505956560954,
          -54.441908301724595
        ]
      }
    },
    {
      "type": "Feature",
      "properties": {
        "norad_id": 33638,
        "name": "FENGYUN 1C DEB",
        "group": "fengyun-1c-debris",
        "lat": -78.41528684353997,
        "lon": -80.89366246433345,
        "alt_km": 816.4319719611649,
        "timestamp": "2025-12-07T03:52:32.784240+00:00",
        "meta_object_name": "FENGYUN 1C DEB",
        "meta_object_id": "1999-025DDX",
        "meta_epoch": "2025-12-06T10:43:22.052928",
        "meta_mean_motion": 13.69284758,
        "meta_eccentricity": 0.02653315,
        "meta_inclination": 98.4646,
        "meta_ra_of_asc_node": 231.8906,
        "meta_arg_of_pericenter": 289.8686,
        "meta_mean_anomaly": 67.4049,
        "meta_ephemeris_type": 0,
        "meta_classification_type": "U",
        "meta_norad_cat_id": 33638,
        "meta_element_set_no": 999,
        "meta_rev_at_epoch": 60829,
        "meta_bstar": 0.0026828187,
        "meta_mean_motion_dot": 2.942e-05,
        "meta_mean_motion_ddot": 0,
        "tle_line1": "1 33638U 99025DDX 25340.44678302  .00002942  00000+0  26828-2 0  9990",
        "tle_line2": "2 33638  98.4646 231.8906 0265331 289.8686  67.4049 13.69284758608296"
      },
      "geometry": {
        "type": "Point",
        "coordinates": [
          -80.89366246433345,
          -78.41528684353997
        ]
      }
    },
    {
      "type": "Feature",
      "properties": {
        "norad_id": 33639,
        "name": "FENGYUN 1C DEB",
        "group": "fengyun-1c-debris",
        "lat": -52.55739884431437,
        "lon": -119.51323810168564,
        "alt_km": 753.522289631871,
        "timestamp": "2025-12-07T03:52:32.784251+00:00",
        "meta_object_name": "FENGYUN 1C DEB",
        "meta_object_id": "1999-025DDY",
        "meta_epoch": "2025-12-03T23:45:48.189312",
        "meta_mean_motion": 14.40248408,
        "meta_eccentricity": 0.00493059,
        "meta_inclination": 98.7136,
        "meta_ra_of_asc_node": 68.813,
        "meta_arg_of_pericenter": 315.1865,
        "meta_mean_anomaly": 44.5345,
        "meta_ephemeris_type": 0,
        "meta_classification_type": "U",
        "meta_norad_cat_id": 33639,
        "meta_element_set_no": 999,
        "meta_rev_at_epoch": 60456,
        "meta_bstar": 0.0043899516,
        "meta_mean_motion_dot": 0.00014079,
        "meta_mean_motion_ddot": 0,
        "tle_line1": "1 33639U 99025DDY 25337.99014108  .00014079  00000+0  43900-2 0  9999",
        "tle_line2": "2 33639  98.7136  68.8130 0049305 315.1865  44.5345 14.40248408604567"
      },
      "geometry": {
        "type": "Point",
        "coordinates": [
          -119.51323810168564,
          -52.55739884431437
        ]
      }
    },
    {
      "type": "Feature",
      "properties": {
        "norad_id": 33640,
        "name": "FENGYUN 1C DEB",
        "group": "fengyun-1c-debris",
        "lat": -47.34001547466393,
        "lon": -66.59750337169504,
        "alt_km": 791.5566302565057,
        "timestamp": "2025-12-07T03:52:32.784261+00:00",
        "meta_object_name": "FENGYUN 1C DEB",
        "meta_object_id": "1999-025DDZ",
        "meta_epoch": "2025-12-03T07:05:28.612320",
        "meta_mean_motion": 14.45839064,
        "meta_eccentricity": 0.0090224,
        "meta_inclination": 98.8397,
        "meta_ra_of_asc_node": 279.6527,
        "meta_arg_of_pericenter": 187.9822,
        "meta_mean_anomaly": 171.9938,
        "meta_ephemeris_type": 0,
        "meta_classification_type": "U",
        "meta_norad_cat_id": 33640,
        "meta_element_set_no": 999,
        "meta_rev_at_epoch": 92206,
        "meta_bstar": 0.00071385,
        "meta_mean_motion_dot": 2.614e-05,
        "meta_mean_motion_ddot": 0,
        "tle_line1": "1 33640U 99025DDZ 25337.29547005  .00002614  00000+0  71385-3 0  9992",
        "tle_line2": "2 33640  98.8397 279.6527 0090224 187.9822 171.9938 14.45839064922065"
      },
      "geometry": {
        "type": "Point",
        "coordinates": [
          -66.59750337169504,
          -47.34001547466393
        ]
      }
    },
    {
      "type": "Feature",
      "properties": {
        "norad_id": 33648,
        "name": "FENGYUN 1C DEB",
        "group": "fengyun-1c-debris",
        "lat": -21.677290221720394,
        "lon": 156.50835901020292,
        "alt_km": 809.9984162583969,
        "timestamp": "2025-12-07T03:52:32.784272+00:00",
        "meta_object_name": "FENGYUN 1C DEB",
        "meta_object_id": "1999-025DEH",
        "meta_epoch": "2025-12-06T06:30:40.832352",
        "meta_mean_motion": 14.11770976,
        "meta_eccentricity": 0.00685802,
        "meta_inclination": 98.7191,
        "meta_ra_of_asc_node": 339.1403,
        "meta_arg_of_pericenter": 192.5615,
        "meta_mean_anomaly": 167.385,
        "meta_ephemeris_type": 0,
        "meta_classification_type": "U",
        "meta_norad_cat_id": 33648,
        "meta_element_set_no": 999,
        "meta_rev_at_epoch": 64285,
        "meta_bstar": 0.00020669669,
        "meta_mean_motion_dot": 3.42e-06,
        "meta_mean_motion_ddot": 0,
        "tle_line1": "1 33648U 99025DEH 25340.27130593  .00000342  00000+0  20670-3 0  9999",
        "tle_line2": "2 33648  98.7191 339.1403 0068580 192.5615 167.3850 14.11770976642858"
      },
      "geometry": {
        "type": "Point",
        "coordinates": [
          156.50835901020292,
          -21.677290221720394
        ]
      }
    },
    {
      "type": "Feature",
      "properties": {
        "norad_id": 33650,
        "name": "FENGYUN 1C DEB",
        "group": "fengyun-1c-debris",
        "lat": 71.86312650994356,
        "lon": 117.5318816741055,
        "alt_km": 821.1110240074031,
        "timestamp": "2025-12-07T03:52:32.784282+00:00",
        "meta_object_name": "FENGYUN 1C DEB",
        "meta_object_id": "1999-025DEK",
        "meta_epoch": "2025-11-29T05:22:43.300128",
        "meta_mean_motion": 13.89153147,
        "meta_eccentricity": 0.01505018,
        "meta_inclination": 98.9878,
        "meta_ra_of_asc_node": 138.7642,
        "meta_arg_of_pericenter": 115.9177,
        "meta_mean_anomaly": 245.7581,
        "meta_ephemeris_type": 0,
        "meta_classification_type": "U",
        "meta_norad_cat_id": 33650,
        "meta_element_set_no": 999,
        "meta_rev_at_epoch": 68621,
        "meta_bstar": 0.00077422425,
        "meta_mean_motion_dot": 9.89e-06,
        "meta_mean_motion_ddot": 0,
        "tle_line1": "1 33650U 99025DEK 25333.22411227  .00000989  00000+0  77422-3 0  9999",
        "tle_line2": "2 33650  98.9878 138.7642 0150501 115.9177 245.7581 13.89153147686219"
      },
      "geometry": {
        "type": "Point",
        "coordinates": [
          117.5318816741055,
          71.86312650994356
        ]
      }
    },
    {
      "type": "Feature",
      "properties": {
        "norad_id": 33651,
        "name": "FENGYUN 1C DEB",
        "group": "fengyun-1c-debris",
        "lat": 76.40743650750741,
        "lon": -12.197695329146322,
        "alt_km": 733.0353909901578,
        "timestamp": "2025-12-07T03:52:32.784293+00:00",
        "meta_object_name": "FENGYUN 1C DEB",
        "meta_object_id": "1999-025DEL",
        "meta_epoch": "2025-12-04T09:34:25.167360",
        "meta_mean_motion": 14.2034714,
        "meta_eccentricity": 0.0118053,
        "meta_inclination": 98.6575,
        "meta_ra_of_asc_node": 24.1579,
        "meta_arg_of_pericenter": 77.9387,
        "meta_mean_anomaly": 283.4991,
        "meta_ephemeris_type": 0,
        "meta_classification_type": "U",
        "meta_norad_cat_id": 33651,
        "meta_element_set_no": 999,
        "meta_rev_at_epoch": 64153,
        "meta_bstar": 0.00028899,
        "meta_mean_motion_dot": 6.21e-06,
        "meta_mean_motion_ddot": 0,
        "tle_line1": "1 33651U 99025DEL 25338.39890240  .00000621  00000+0  28899-3 0  9996",
        "tle_line2": "2 33651  98.6575  24.1579 0118053  77.9387 283.4991 14.20347140641538"
      },
      "geometry": {
        "type": "Point",
        "coordinates": [
          -12.197695329146322,
          76.40743650750741
        ]
      }
    }
  ]
}